D-STAR ONE (LIGHTSAT)   
1 44393U 19038H   21332.63894000  .00002843  00000+0  15794-3 0  9990
2 44393  97.6107 296.7498 0022787 105.1359 255.2395 15.14326676132626
AMGU-1 (AMURSAT)        
1 44394U 19038J   21332.85238484  .00001998  00000+0  11207-3 0  9998
2 44394  97.6083 296.9028 0022643 104.6386 255.7359 15.14336125132654
DOT-1                   
1 44399U 19038P   21332.85539721  .00001675  00000+0  97528-4 0  9994
2 44399  97.6136 296.1774 0025672 108.7074 251.6947 15.13172872132599
SOKRAT                  
1 44404U 19038U   21332.62584847  .00002688  00000+0  15013-3 0  9998
2 44404  97.6096 296.4024 0023008 106.8229 253.5529 15.14185243132600
LUCKY-7                 
1 44406U 19038W   21332.84496071  .00001818  00000+0  10462-3 0  9992
2 44406  97.6127 296.4379 0025562 101.6264 258.7838 15.13487806132608
D-STAR ONE (EXOCONNECT) 
1 44410U 19038AA  21332.81866826  .00003876  00000+0  20805-3 0  9991
2 44410  97.6060 297.0357 0022619 103.0227 257.3532 15.15323375132672
NARSSCUBE-2             
1 44415U 19022E   21332.74381557  .00001863  00000+0  71499-4 0  9994
2 44415  51.6428   6.8852 0011718  55.0130 305.1950 15.31864076129328
KRAKSAT                 
1 44427U 98067QM  21332.86047698  .00117288  00000+0  46836-3 0  9996
2 44427  51.6345 176.5708 0006044 183.3906 299.8747 15.85698867137364
NARSSCUBE-1             
1 44792U 98067QX  21332.84319324  .00273214  40264-4  69336-3 0  9990
2 44792  51.6284 185.5619 0007457 204.7777 155.2873 15.94936831115474
DUCHIFAT-3              
1 44854U 19089C   21332.92040909  .00000918  00000+0  79117-4 0  9992
2 44854  36.9650 207.8145 0007992  19.8493 340.2545 14.99820432107805
OPS-SAT                 
1 44878U 19092F   21332.78598003  .00002164  00000+0  11218-3 0  9991
2 44878  97.4754 153.9983 0012708 324.3564  35.6819 15.17185828107749
FLORIPASAT-1            
1 44885U 19093G   21332.85159989  .00000542  00000+0  74037-4 0  9991
2 44885  97.9149  50.6362 0015785 123.4873 236.7842 14.82482264105128
HUSKYSAT-1 (HO-107)     
1 45119U 19071J   21332.38155091  .00007864  00000+0  21999-3 0  9998
2 45119  51.6415 321.1520 0010702 157.5406 202.6048 15.37566354102376
G-SAT                   
1 45597U 98067RK  21332.30499681  .00040598  00000+0  39826-3 0  9997
2 45597  51.6367 223.5193 0004073 180.8555 179.2434 15.65643594 90200
QUETZAL-1               
1 45598U 98067RL  21332.95105356  .00058943  00000+0  44654-3 0  9990
2 45598  51.6358 215.0554 0003835 165.7425 194.3682 15.71789532 90305
BY70-2                  
1 45857U 20042B   21332.82960624  .00001908  00000+0  27377-3 0  9991
2 45857  97.9728  46.8308 0011466  51.5387 308.6842 14.77616810 75812
SALSAT                  
1 46495U 20068K   21332.90791567  .00001606  00000+0  12148-3 0  9990
2 46495  97.7052 269.5522 0015872 234.4344 125.5403 15.03687503 64040
NETSAT-4                
1 46504U 20068U   21332.75966912  .00001110  00000+0  88378-4 0  9991
2 46504  97.7052 268.3683 0010548 281.8263  78.1781 15.02394132 63905
NETSAT-3                
1 46505U 20068V   21332.77027954  .00001624  00000+0  12730-3 0  9996
2 46505  97.7011 268.3240 0010993 292.1864  67.8188 15.02357034 63913
NETSAT-1                
1 46506U 20068W   21332.24779451  .00001370  00000+0  10829-3 0  9990
2 46506  97.7011 267.7642 0010224 308.2067  51.8234 15.02297353 63837
NETSAT-2                
1 46507U 20068X   21332.58709630  .00000657  00000+0  54393-4 0  9992
2 46507  97.7011 268.0967 0009836 319.1056  40.9468 15.02266770 63835
BY70-3                  
1 46839U 20079N   21332.92396747  .00005061  00000+0  14960-3 0  9990
2 46839  97.2249  43.5295 0006499 351.2225 123.7224 15.35356071 59428
SPOC                    
1 46921U 98067RR  21332.37612526  .00024648  00000+0  30942-3 0  9999
2 46921  51.6390 236.0442 0001141  77.0373 283.0747 15.59564256 60390
BOBCAT-1                
1 46922U 98067RS  21332.34460077  .00042698  00000+0  43842-3 0  9997
2 46922  51.6402 231.3674 0002324 110.9515 249.1729 15.64476180 60419
NEUTRON-1               
1 46923U 98067RT  21332.34125708  .00023787  00000+0  30043-3 0  9994
2 46923  51.6397 236.5601 0001645  77.8607 282.2570 15.59425944 60416
1998-067RU              
1 46924U 98067RU  21332.11908309  .00189674  00000+0  84379-3 0  9995
2 46924  51.6299 219.9412 0006364 159.0132 201.1133 15.83211587 60588
DESCENT                 
1 46927U 98067RX  21332.34422176  .00025061  00000+0  31504-3 0  9997
2 46927  51.6399 236.5766 0002345  75.8108 284.3145 15.59516627 60326
UVSQ-SAT                
1 47438U 21006AB  21332.88756293  .00001780  00000+0  10246-3 0  9995
2 47438  97.4676  31.0297 0011152 247.3033 112.7020 15.13674646 46928
SOMP2B                  
1 47445U 21006AJ  21332.92056384  .00001551  00000+0  90216-4 0  9994
2 47445  97.4649  30.8726 0010724 251.4420 108.5646 15.13483491 46923
WARP-01                 
1 47924U 98067SA  21332.17141456  .00031121  00000+0  40072-3 0  9999
2 47924  51.6385 243.6445 0003406  43.6405 316.4856 15.58755011 40262
RSP-01                  
1 47925U 98067SB  21332.82571602  .00024229  00000+0  33376-3 0  9992
2 47925  51.6405 241.2822 0000823 139.1622 220.9432 15.57095715 40335
TAUSAT-1                
1 47926U 98067SC  21332.87436871  .00033240  00000+0  42018-3 0  9992
2 47926  51.6391 239.3431 0000904 170.6594 189.4416 15.59213767 40356
TSURU                   
1 47927U 98067SD  21332.16363129  .00020410  00000+0  29020-3 0  9993
2 47927  51.6405 245.1097 0000588 148.0759 212.0268 15.56351534 40222
STARS-EC                
1 47928U 98067SE  21332.04381071  .00033338  00000+0  42219-3 0  9995
2 47928  51.6394 244.2980 0003916  45.6011 314.5302 15.59158333 40202
MAYA-2                  
1 47929U 98067SF  21332.48034513  .00023405  00000+0  33136-3 0  9992
2 47929  51.6395 243.4728 0000640 163.5698 196.5314 15.56377096 40237
HIROGARI (OPUSAT-II)    
1 47930U 98067SG  21332.86806685  .00036545  00000+0  44856-3 0  9993
2 47930  51.6398 239.3154 0001916 144.3202 215.7920 15.59942904 40364
GUARANISAT-1            
1 47931U 98067SH  21332.47720032  .00023606  00000+0  33363-3 0  9997
2 47931  51.6402 243.4564 0000665 167.0600 193.0409 15.56417522 40276
DIY-1 (ARDUIQUBE)       
1 47963U 21022AH  21332.48539176  .00005323  00000+0  34423-3 0  9991
2 47963  97.5446 231.8854 0020546 101.7020 258.6515 15.08442384 36612
